[{"OBJECT_NAME":"TIANPING 2C","OBJECT_ID":"2022-032D","EPOCH":"2026-03-09T22:24:23.522112","MEAN_MOTION":15.10225163,"ECCENTRICITY":0.00079422,"INCLINATION":97.5961,"RA_OF_ASC_NODE":122.1196,"ARG_OF_PERICENTER":128.8925,"MEAN_ANOMALY":231.3013,"EPHEMERIS_TYPE":0,"CLASSIFICATION_TYPE":"U","NORAD_CAT_ID":52156,"ELEMENT_SET_NO":999,"REV_AT_EPOCH":21586,"BSTAR":0.00036090623,"MEAN_MOTION_DOT":5.841e-5,"MEAN_MOTION_DDOT":0},{"OBJECT_NAME":"STARLINK-5264","OBJECT_ID":"2022-141BB","EPOCH":"2026-03-09T23:20:04.188480","MEAN_MOTION":15.08836829,"ECCENTRICITY":0.0001239,"INCLINATION":53.2182,"RA_OF_ASC_NODE":317.6895,"ARG_OF_PERICENTER":92.9072,"MEAN_ANOMALY":267.2062,"EPHEMERIS_TYPE":0,"CLASSIFICATION_TYPE":"U","NORAD_CAT_ID":54206,"ELEMENT_SET_NO":999,"REV_AT_EPOCH":18653,"BSTAR":-7.7739346e-5,"MEAN_MOTION_DOT":-1.525e-5,"MEAN_MOTION_DDOT":0}]
